NORAD_CAT_ID,OBJECT_NAME,OBJECT_TYPE,EPOCH,MEAN_MOTION,ECCENTRICITY,INCLINATION,RA_OF_ASC_NODE,ARG_OF_PERICENTER,MEAN_ANOMALY,BSTAR,MEAN_MOTION_DOT,MEAN_MOTION_DDOT,TLE_LINE0,TLE_LINE1,TLE_LINE2,SEMIMAJOR_AXIS,PERIOD,APOGEE,PERIGEE,DECAYED
56782.0,STARLINK-6352,PAYLOAD,2024-01-30 12:05:33,14.98323394,0.0002784,69.9995,103.9825,260.2911,99.7934,-7.6829e-05,-1.009e-05,0.0,0 STARLINK-6352,1 56782U 23078R   24030.50386049 -.00001009  00000-0 -76829-4 0  9990,2 56782  69.9995 103.9825 0002784 260.2911  99.7934 14.98323394 38218,6950.213,96.107,574.013,570.143,0.0
56782.0,STARLINK-6352,PAYLOAD,2024-01-30 13:41:41,14.98323149,0.0002789,69.9994,103.8142,260.706,99.3783,-7.8794e-05,-1.033e-05,0.0,0 STARLINK-6352,1 56782U 23078R   24030.57062093 -.00001033  00000-0 -78794-4 0  9997,2 56782  69.9994 103.8142 0002789 260.7060  99.3783 14.98323149 37960,6950.214,96.107,574.017,570.141,0.0
56782.0,STARLINK-6352,PAYLOAD,2024-01-30 15:17:49,14.9832356,0.0002795,69.9994,103.6459,260.9763,99.108,-7.4287e-05,-9.79e-06,0.0,0 STARLINK-6352,1 56782U 23078R   24030.63738077 -.00000979  00000-0 -74287-4 0  9997,2 56782  69.9994 103.6459 0002795 260.9763  99.1080 14.98323560 37974,6950.213,96.107,574.02,570.135,0.0
56782.0,STARLINK-6352,PAYLOAD,2024-01-31 12:07:33,14.9833878,0.0002907,69.9987,101.4563,264.1464,95.9364,1.1158e-05,4e-07,0.0,0 STARLINK-6352,1 56782U 23078R   24031.50524737  .00000040  00000-0  11158-4 0  9995,2 56782  69.9987 101.4563 0002907 264.1464  95.9364 14.98338780 38360,6950.166,96.106,574.051,570.01,0.0
56782.0,STARLINK-6352,PAYLOAD,2024-01-31 15:19:49,14.98341255,0.0002964,69.9987,101.12,264.7037,95.3784,-7.0503e-08,-9.4e-07,0.0,0 STARLINK-6352,1 56782U 23078R   24031.63876527 -.00000094  00000-0 -70503-7 0  9999,2 56782  69.9987 101.1200 0002964 264.7037  95.3784 14.98341255 38125,6950.158,96.106,574.083,569.963,0.0
56782.0,STARLINK-6352,PAYLOAD,2024-02-01 04:08:54,14.98325802,0.0002552,69.9999,99.7737,256.4628,103.6247,9.4212e-05,1.031e-05,0.0,0 STARLINK-6352,1 56782U 23078R   24032.17285179  .00001031  00000-0  94212-4 0  9996,2 56782  69.9999  99.7737 0002552 256.4628 103.6247 14.98325802 38466,6950.206,96.107,573.845,570.297,0.0
56782.0,STARLINK-6352,PAYLOAD,2024-02-01 13:45:43,14.98324375,0.0002899,69.999,98.7633,259.376,100.7073,3.8946e-05,3.72e-06,0.0,0 STARLINK-6352,1 56782U 23078R   24032.57341466  .00000372  00000-0  38946-4 0  9991,2 56782  69.9990  98.7633 0002899 259.3760 100.7073 14.98324375 38261,6950.21,96.107,574.09,570.06,0.0
56782.0,STARLINK-6352,PAYLOAD,2024-02-02 12:11:35,14.98335414,0.000289,69.999,96.4065,260.8112,99.272,-2.7853e-05,-4.25e-06,0.0,0 STARLINK-6352,1 56782U 23078R   24033.50804848 -.00000425  00000-0 -27853-4 0  9999,2 56782  69.9990  96.4065 0002890 260.8112  99.2720 14.98335414 38665,6950.176,96.107,574.05,570.033,0.0
56782.0,STARLINK-6352,PAYLOAD,2024-02-02 13:47:43,14.98335995,0.0002887,69.999,96.2382,260.7639,99.3194,-2.1128e-05,-3.45e-06,0.0,0 STARLINK-6352,1 56782U 23078R   24033.57480768 -.00000345  00000-0 -21128-4 0  9997,2 56782  69.9990  96.2382 0002887 260.7639  99.3194 14.98335995 38417,6950.174,96.107,574.046,570.033,0.0
56782.0,STARLINK-6352,PAYLOAD,2024-02-03 04:12:56,14.98325815,0.0002904,69.999,94.7238,262.6257,97.4572,-2.1353e-05,-3.48e-06,0.0,0 STARLINK-6352,1 56782U 23078R   24034.17565345 -.00000348  00000-0 -21353-4 0  9992,2 56782  69.9990  94.7238 0002904 262.6257  97.4572 14.98325815 38764,6950.206,96.107,574.089,570.052,0.0
56782.0,STARLINK-6352,PAYLOAD,2024-02-03 13:49:45,14.98324734,0.0002919,69.9989,93.7139,263.8031,96.2796,-3.3186e-05,-4.89e-06,0.0,0 STARLINK-6352,1 56782U 23078R   24034.57621549 -.00000489  00000-0 -33186-4 0  9998,2 56782  69.9989  93.7139 0002919 263.8031  96.2796 14.98324734 38562,6950.209,96.107,574.103,570.045,0.0
56782.0,STARLINK-6352,PAYLOAD,2024-02-04 04:14:57,14.98333919,0.0003012,69.9986,92.1978,272.1776,87.9038,9.1715e-06,1.6e-07,0.0,0 STARLINK-6352,1 56782U 23078R   24035.17704889  .00000016  00000-0  91715-5 0  9991,2 56782  69.9986  92.1978 0003012 272.1776  87.9038 14.98333919 38917,6950.181,96.107,574.139,569.952,0.0
56782.0,STARLINK-6352,PAYLOAD,2024-02-04 13:51:44,14.983378,0.0002946,69.9988,91.1879,271.9809,88.1013,5.797e-05,5.99e-06,0.0,0 STARLINK-6352,1 56782U 23078R   24035.57760381  .00000599  00000-0  57970-4 0  9994,2 56782  69.9988  91.1879 0002946 271.9809  88.1013 14.98337800 38714,6950.169,96.106,574.081,569.986,0.0
56782.0,STARLINK-6352,PAYLOAD,2024-02-05 04:16:58,14.98326743,0.0002831,69.9991,89.6729,274.8093,85.2743,4.4927e-05,4.43e-06,0.0,0 STARLINK-6352,1 56782U 23078R   24036.17845038  .00000443  00000-0  44927-4 0  9990,2 56782  69.9991  89.6729 0002831 274.8093  85.2743 14.98326743 39065,6950.203,96.107,574.036,570.1,0.0
56782.0,STARLINK-6352,PAYLOAD,2024-02-05 13:53:46,14.98329741,0.0002805,69.999,88.6628,272.9131,87.1707,6.9766e-05,7.4e-06,0.0,0 STARLINK-6352,1 56782U 23078R   24036.57900795  .00000740  00000-0  69766-4 0  9994,2 56782  69.9990  88.6628 0002805 272.9131  87.1707 14.98329741 38863,6950.194,96.107,574.008,570.109,0.0
56782.0,STARLINK-6352,PAYLOAD,2024-02-06 04:18:58,14.98332987,0.0002592,69.9995,87.1486,264.2263,95.86,-3.7426e-05,-5.39e-06,0.0,0 STARLINK-6352,1 56782U 23078R   24037.17984792 -.00000539  00000-0 -37426-4 0  9996,2 56782  69.9995  87.1486 0002592 264.2263  95.8600 14.98332987 39211,6950.184,96.107,573.85,570.247,0.0
56782.0,STARLINK-6352,PAYLOAD,2024-02-06 12:19:39,14.9833274,0.0002612,69.9993,86.3071,262.1543,97.932,-3.6574e-05,-5.29e-06,0.0,0 STARLINK-6352,1 56782U 23078R   24037.51364728 -.00000529  00000-0 -36574-4 0  9997,2 56782  69.9993  86.3071 0002612 262.1543  97.9320 14.98332740 39007,6950.184,96.107,573.865,570.234,0.0
56782.0,STARLINK-6352,PAYLOAD,2024-02-07 04:20:59,14.98329019,0.0002601,69.9992,84.6237,258.223,101.8638,7.0772e-06,-9e-08,0.0,0 STARLINK-6352,1 56782U 23078R   24038.18124723 -.00000009  00000-0  70772-5 0  9991,2 56782  69.9992  84.6237 0002601 258.2230 101.8638 14.98329019 39369,6950.196,96.107,573.869,570.253,0.0
56782.0,STARLINK-6352,PAYLOAD,2024-02-07 12:21:40,14.98329255,0.0002694,69.9988,83.781,268.8059,91.2792,-5.0472e-06,-1.53e-06,0.0,0 STARLINK-6352,1 56782U 23078R   24038.51504800 -.00000153  00000-0 -50472-5 0  9992,2 56782  69.9988  83.7810 0002694 268.8059  91.2792 14.98329255 39151,6950.195,96.107,573.933,570.188,0.0
56782.0,STARLINK-6352,PAYLOAD,2024-02-07 20:22:20,14.98327932,0.0002774,69.9985,82.9394,271.4494,88.6347,-3.3069e-05,-4.88e-06,0.0,0 STARLINK-6352,1 56782U 23078R   24038.84884966 -.00000488  00000-0 -33069-4 0  9995,2 56782  69.9985  82.9394 0002774 271.4494  88.6347 14.98327932 39200,6950.199,96.107,573.992,570.136,0.0
56782.0,STARLINK-6352,PAYLOAD,2024-02-08 04:23:00,14.98328389,0.0002815,69.9984,82.0976,271.2449,88.8388,-1.7834e-05,-3.06e-06,0.0,0 STARLINK-6352,1 56782U 23078R   24039.18264923 -.00000306  00000-0 -17834-4 0  9999,2 56782  69.9984  82.0976 0002815 271.2449  88.8388 14.98328389 39518,6950.198,96.107,574.019,570.106,0.0
56782.0,STARLINK-6352,PAYLOAD,2024-02-08 12:23:41,14.98330015,0.0002844,69.9984,81.255,269.5268,90.5565,8.7098e-07,-8.3e-07,0.0,0 STARLINK-6352,1 56782U 23078R   24039.51644755 -.00000083  00000-0  87098-6 0  9993,2 56782  69.9984  81.2550 0002844 269.5268  90.5565 14.98330015 39301,6950.193,96.107,574.034,570.081,0.0
56782.0,STARLINK-6352,PAYLOAD,2024-02-09 04:25:01,14.98329646,0.0002863,69.9985,79.5716,269.5407,90.5424,-4.0798e-08,-9.3e-07,0.0,0 STARLINK-6352,1 56782U 23078R   24040.18404765 -.00000093  00000-0 -40798-7 0  9992,2 56782  69.9985  79.5716 0002863 269.5407  90.5424 14.98329646 39663,6950.194,96.107,574.049,570.069,0.0
56782.0,STARLINK-6352,PAYLOAD,2024-02-09 12:25:41,14.9833189,0.0002859,69.9985,78.73,269.7515,90.3316,2.5689e-05,2.14e-06,0.0,0 STARLINK-6352,1 56782U 23078R   24040.51784543  .00000214  00000-0  25689-4 0  9996,2 56782  69.9985  78.7300 0002859 269.7515  90.3316 14.98331890 39459,6950.187,96.107,574.039,570.065,0.0
56782.0,STARLINK-6352,PAYLOAD,2024-02-10 10:51:35,14.98328558,0.0002784,69.9989,76.3746,269.1925,90.8915,-7.7875e-06,-1.86e-06,0.0,0 STARLINK-6352,1 56782U 23078R   24041.45248932 -.00000186  00000-0 -77875-5 0  9992,2 56782  69.9989  76.3746 0002784 269.1925  90.8915 14.98328558 39858,6950.197,96.107,573.997,570.127,0.0
56782.0,STARLINK-6352,PAYLOAD,2024-02-10 12:27:43,14.98329074,0.0002782,69.9989,76.2064,269.2628,90.8212,-2.0193e-06,-1.17e-06,0.0,0 STARLINK-6352,1 56782U 23078R   24041.51924890 -.00000117  00000-0 -20193-5 0  9998,2 56782  69.9989  76.2064 0002782 269.2628  90.8212 14.98329074 39606,6950.196,96.107,573.994,570.127,0.0
56782.0,STARLINK-6352,PAYLOAD,2024-02-11 10:53:35,14.98331291,0.0002628,69.9992,73.8494,266.5314,93.5545,2.9594e-05,2.6e-06,0.0,0 STARLINK-6352,1 56782U 23078R   24042.45388626  .00000260  00000-0  29594-4 0  9993,2 56782  69.9992  73.8494 0002628 266.5314  93.5545 14.98331291 40000,6950.189,96.107,573.88,570.227,0.0
56782.0,STARLINK-6352,PAYLOAD,2024-02-11 12:29:43,14.98331782,0.0002627,69.9992,73.6811,266.3292,93.7567,3.4241e-05,3.16e-06,0.0,0 STARLINK-6352,1 56782U 23078R   24042.52064575  .00000316  00000-0  34241-4 0  9992,2 56782  69.9992  73.6811 0002627 266.3292  93.7567 14.98331782 39754,6950.187,96.107,573.878,570.227,0.0
56782.0,STARLINK-6352,PAYLOAD,2024-02-12 10:55:36,14.98333417,0.0002614,69.9992,71.3243,264.112,95.9741,6.8816e-05,7.28e-06,0.0,0 STARLINK-6352,1 56782U 23078R   24043.45528188  .00000728  00000-0  68816-4 0  9992,2 56782  69.9992  71.3243 0002614 264.1120  95.9741 14.98333417 40151,6950.182,96.107,573.864,570.231,0.0
56782.0,STARLINK-6352,PAYLOAD,2024-02-13 02:56:54,14.98357335,0.0002714,69.9987,69.6403,262.8423,97.2427,0.000231,2.666e-05,0.0,0 STARLINK-6352,1 56782U 23078R   24044.12285396  .00002666  00000-0  23100-3 0  9997,2 56782  69.9987  69.6403 0002714 262.8423  97.2427 14.98357335 40257,6950.108,96.105,573.86,570.087,0.0
